#aV2014 12 28  0  0  0.00000000     288 DD+AD WGS84 FIT  NGA
## 1825      0.00000000   300.00000000 57019 0.0000000000000
+   32     1  2  3  4  5  6  7  8  9 10 11 12 13 14 15 16 17
+         18 19 20 21 22 23 24 25 26 27 28 29 30 31 32  0  0
+          0  0  0  0  0  0  0  0  0  0  0  0  0  0  0  0  0
+          0  0  0  0  0  0  0  0  0  0  0  0  0  0  0  0  0
+          0  0  0  0  0  0  0  0  0  0  0  0  0  0  0  0  0
++         2  2  2  2  2  2  2  2  2  2  2  2  2  2  2  2  2
++         2  2  2  2  2  2  2  2  2  2  2  2  2  2  2  0  0
++         0  0  0  0  0  0  0  0  0  0  0  0  0  0  0  0  0
++         0  0  0  0  0  0  0  0  0  0  0  0  0  0  0  0  0
++         0  0  0  0  0  0  0  0  0  0  0  0  0  0  0  0  0
%c cc cc ccc ccc cccc cccc cccc cccc ccccc ccccc ccccc ccccc
%c cc cc ccc ccc cccc cccc cccc cccc ccccc ccccc ccccc ccccc
%f  0.0000000  0.000000000  0.00000000000  0.000000000000000
%f  0.0000000  0.000000000  0.00000000000  0.000000000000000
%i    0    0    0    0      0      0      0      0         0
%i    0    0    0    0      0      0      0      0         0
/*      NGA, ST. LOUIS,MO.                                  
/*   EPHEMERIS COMPUTED FROM  1 DAYS OF DATA                
/*   EPOCHA SMOOTHER                                       
/* CCCCCCCCCCCCCCCCCCCCCCCCCCCCCCCCCCCCCCCCCCCCCCCCCCCCCCCCC
*  2014 12 28 22  5  0.00000000
P  1 -16172.324044   -950.863624  21024.690277    -10.715792                    
V  1  -9318.508503 -25116.666695  -8123.036397      0.003570                    
P  2  14107.895196  22030.118603  -5555.541043    538.582857                    
V  2    227.720595   7978.256187  29930.471647      0.022408                    
P  3 -20022.859864   7956.020369  15568.533479    109.906122                    
V  3  10561.235097 -16801.156058  22127.547473      0.275669                    
P  4 -17545.699035 -12143.093375  15665.981929     -4.875937                    
V  4  -5802.381831 -19712.305251 -21091.521600     -0.005030                    
P  5  10940.430874  11191.670724 -21503.386443   -300.166724                    
V  5 -16894.313511  21374.157826   2711.358776      0.049305                    
P  6   5084.077713  25147.097463   6895.970171     37.393474                    
V  6  -5765.452042  -7115.514004  30125.505637      0.089596                    
P  7 -10602.703104  12255.362213 -20873.482247    426.510977                    
V  7 -10313.792180 -24727.980884  -9580.485554      0.035175                    
P  8 -13839.534262 -18533.352901 -13370.845185     16.889807                    
V  8  -3354.291948 -16748.464931  25664.245794      0.001212                    
P  9 -19266.056555   8760.612311 -16058.335574    -39.488474                    
V  9 -19938.666751  -4657.867817  21376.179723     -0.101967                    
P 10  -5009.626128  22247.409659 -13627.443886   -156.320145                    
V 10 -12763.074143  11450.589549  24476.779205     -0.017634                    
P 11 -20976.351825  -5864.661917  14776.132369   -546.916302                    
V 11 -10463.150910 -17218.694799 -20801.427505     -0.026896                    
P 12  19114.146351  -4473.226784  17709.245425    257.101493                    
V 12 -13703.409186  18093.038930  19483.046238      0.029020                    
P 13  16974.941422  14430.107236 -14525.480565    -73.732586                    
V 13 -18075.144278  -2698.091111 -24216.245908     -0.035658                    
P 14   1083.476851 -15231.627206  21971.573421    102.035535                    
V 14  26717.574102   5668.361577   2498.281573     -0.035668                    
P 15  26619.595368   2454.660247    104.275596   -223.059033                    
V 15    -96.295629   3372.638957 -30963.689280     -0.022375                    
P 16  -9649.689382 -11076.573749 -22165.747052   -169.503700                    
V 16  18736.876745 -20739.307587   2567.806290      0.030771                    
P 17  -2877.752913  14843.192766  22117.073411   -146.701845                    
V 17 -26902.661736  -5070.704949   -319.562670     -0.023381                    
P 18  15409.267262 -21420.050788    784.304988    368.369181                    
V 18   3645.258588   2168.876410 -31119.885558      0.026678                    
P 19 -24956.600864  -8897.282992  -4238.920527   -494.374008                    
V 19   5452.218661   -907.960285 -31028.880652     -0.015773                    
P 20 -19444.001523  14373.037399  10756.221857    272.494920                    
V 20   4956.850229 -13552.227510  26709.714080      0.042462                    
P 21   6580.141932 -17960.239880 -17589.747783   -402.875219                    
V 21  11499.877486  21116.833583 -17042.254955     -0.022725                    
P 22   6107.585464 -22980.923751  11873.627344    301.565726                    
V 22  11699.010464  -9837.535960 -25690.197968      0.040682                    
P 23 -25696.499307   1503.608269  -7262.508802    -77.766550                    
V 23  -8820.478274  -3973.408337  29426.117436     -0.026894                    
P 24  17092.053461   4319.690038  19883.957359    -40.846616                    
V 24   8782.484284  23725.511638 -12560.672319     -0.005869                    
P 25  19336.410533 -16277.529871   7833.214544      6.669263                    
V 25  -4384.570526   9351.533244  30100.470844     -0.022393                    
P 26  20455.534551  13139.105881 -11680.345242   -173.144715                    
V 26 -13714.322616  -1580.416524 -27100.294409     -0.132659                    
P 27 -18997.997975 -12322.434090 -13958.632765     40.378792                    
V 27  17770.180885    413.821169 -24488.245041      0.027175                    
P 28 -11479.914578  22193.260205   9459.649801    408.553710                    
V 28  -8695.011357   7149.555110 -29372.260454      0.026261                    
P 29  21557.062165  -5788.635723 -14335.127759    582.476916                    
V 29  17553.600136   5336.124110  24226.322100      0.023506                    
P 30  -3781.099409  21853.217575 -14578.436276    -85.985075                    
V 30  -7747.715971 -16987.956494 -23499.086810     -0.006558                    
P 31  -5999.924749 -25291.829714   4649.705541    326.558326                    
V 31   4364.145104   4531.600936  31593.439386     -0.006862                    
P 32 -15183.188335  -5757.206429  20927.349510   -260.220390                    
V 32  17369.403983 -20338.560191   7549.712298      0.087130                    
EOF
